[
    {
        "Altitude(m)": 624792.7562727814,
        "Argument of Periapsis(deg)": 0.0,
        "Eccentricity": 0.0,
        "Inclination(deg)": 60.0,
        "Latitude(deg)": -59.1470396736693,
        "Longitude(deg)": 34.02655426411925,
        "Mean Anomaly(deg)": -98.18179999999994,
        "RAAN(deg)": 240.0,
        "Satellite Name": "Test1 1072",
        "Satellite Number": 1072,
        "Semi-Major Axis(m)": 6980739.136638005,
        "Time(s)": 0
    },
    {
        "Altitude(m)": 624842.1477632885,
        "Argument of Periapsis(deg)": 0.00010418945913296404,
        "Eccentricity": 0.0,
        "Inclination(deg)": 60.0,
        "Latitude(deg)": -59.28912148425871,
        "Longitude(deg)": 35.15605757425336,
        "Mean Anomaly(deg)": -97.56169385453809,
        "RAAN(deg)": 239.99957995086024,
        "Satellite Name": "Test1 1072",
        "Satellite Number": 1072,
        "Semi-Major Axis(m)": 6980739.136638005,
        "Time(s)": 10
    }
]